OBJECT_NAME,OBJECT_ID,EPOCH,MEAN_MOTION,ECCENTRICITY,INCLINATION,RA_OF_ASC_NODE,ARG_OF_PERICENTER,MEAN_ANOMALY,EPHEMERIS_TYPE,CLASSIFICATION_TYPE,NORAD_CAT_ID,ELEMENT_SET_NO,REV_AT_EPOCH,BSTAR,MEAN_MOTION_DOT,MEAN_MOTION_DDOT
STARLINK-37073,2026-049K,2026-03-19T12:17:46.658976,16.03149567,.0000583,97.2790,98.0750,352.5845,7.5426,0,U,68151,999,95,-.81365E-3,-.494902E-2,.91744E-4
STARLINK-37049,2026-049L,2026-03-19T00:18:24.647328,16.04917116,.0000474,97.2794,97.5302,89.6838,270.4498,0,U,68152,999,87,-.61657E-3,-.417006E-2,.68149E-4
STARLINK-37072,2026-049M,2026-03-19T12:16:50.098080,16.03506250,.0002614,97.2788,98.0760,12.6003,347.5342,0,U,68153,999,95,-.25962E-3,-.162025E-2,.12479E-4
STARLINK-36241,2026-049N,2026-03-19T12:15:49.006368,16.03790974,.0002702,97.2787,98.0764,13.1240,347.0110,0,U,68154,999,95,-.21485E-3,-.136495E-2,.95698E-5
STARLINK-37048,2026-049P,2026-03-19T07:45:22.656096,16.04907380,.0002251,97.2786,97.8732,149.8692,210.2719,0,U,68155,999,92,.15061E-3,.101037E-2,.66606E-5
STARLINK-36313,2026-049Q,2026-03-19T12:15:24.149088,16.03927223,.0002314,97.2787,98.0771,1.4479,358.6808,0,U,68156,999,95,-.26937E-3,-.172305E-2,.13864E-4
STARLINK-37064,2026-049R,2026-03-19T12:16:14.522880,16.03667729,.00022388,97.2784,98.0764,357.8304,2.2966,0,U,68157,999,95,-.22898351E-3,-.144348E-2,.10411467E-4
STARLINK-37069,2026-049S,2026-03-19T12:13:33.650400,16.06600253,.0001368,97.2784,98.0788,7.2640,352.8662,0,U,68158,999,95,.14785E-2,.1093981E-1,.68408E-3
STARLINK-37053,2026-049T,2026-03-19T07:44:16.985184,16.05261971,.00025313,97.2784,97.8738,141.0873,219.0591,0,U,68159,999,92,.95454192E-4,.65181E-3,.4110318E-5
STARLINK-36306,2026-049U,2026-03-19T12:13:21.534528,16.04569636,.0002364,97.2782,98.0789,13.0399,347.0943,0,U,68160,999,95,-.30343808E-3,-.201573E-2,.18201465E-4
STARLINK-37057,2026-049V,2026-03-20T19:44:00.954528,15.99652779,.00005165,97.2774,99.5066,61.6825,298.4505,0,U,68161,999,116,-.15396315E-2,-.764003E-2,.19799191E-3
STARLINK-37013,2026-049W,2026-03-21T10:40:08.036544,15.98955538,.00009781,97.2760,100.1921,285.2580,74.8590,0,U,68162,999,126,-.65159891E-2,-.3082394E-1,.27951994E-2
STARLINK-36958,2026-049X,2026-03-21T00:11:09.324384,15.99834123,.00015308,97.2762,99.7144,151.8774,208.2587,0,U,68163,999,119,-.11261656E-2,-.565483E-2,.11311572E-3
STARLINK-37002,2026-049Y,2026-03-20T19:41:35.358432,16.00359997,.0000568,97.2773,99.5096,170.3743,189.7546,0,U,68164,999,116,-.92965787E-3,-.481185E-2,.84172413E-4
STARLINK-36971,2026-049Z,2026-03-21T09:10:47.185248,15.99800071,.00082212,97.2764,100.1226,134.8506,225.3442,0,U,68165,999,125,-.32495883E-2,-.1621138E-1,.80040981E-3
STARLINK-36273,2026-049AA,2026-03-20T18:09:04.725216,16.01239572,.00006488,97.2750,99.4439,211.7263,148.3977,0,U,68166,999,115,-.5628694E-3,-.306844E-2,.36956624E-4
STARLINK-36969,2026-050A,2026-03-19T13:41:02.541120,15.97343210,.0000488,53.1618,232.5443,318.1927,41.9065,0,U,68167,999,203,-.16788E-2,-.762286E-2,.19812E-3
STARLINK-36984,2026-050B,2026-03-19T13:40:45.953184,15.97468217,.0000565,53.1620,232.5441,333.0752,27.0248,0,U,68168,999,203,-.16463E-2,-.752821E-2,.194E-3
STARLINK-37077,2026-050C,2026-03-19T13:40:26.349024,15.97622802,.0000745,53.1619,232.5425,335.0992,25.0002,0,U,68169,999,203,-.16046E-2,-.740191E-2,.18853E-3
STARLINK-37003,2026-050D,2026-03-19T13:40:06.896064,15.97788708,.0000461,53.1620,232.5407,327.9149,32.1853,0,U,68170,999,203,-.15382E-2,-.716345E-2,.17815E-3
STARLINK-37034,2026-050E,2026-03-19T13:39:46.570464,15.97919140,.0000585,53.1619,232.5395,340.0636,20.0371,0,U,68171,999,203,-.15903E-2,-.745719E-2,.19165E-3
STARLINK-37031,2026-050F,2026-03-19T13:39:25.217568,15.98076782,.0000458,53.1620,232.5378,346.3779,13.7239,0,U,68172,999,203,-.15788E-2,-.746879E-2,.1925E-3
STARLINK-37076,2026-050G,2026-03-19T12:09:00.468288,15.98507778,.0000645,53.1615,232.8571,359.7564,0.3466,0,U,68173,999,202,-.17873E-2,-.864982E-2,.25162E-3
STARLINK-37078,2026-050H,2026-03-19T13:38:45.418272,15.98372202,.0000261,53.1617,232.5342,74.2706,285.8353,0,U,68174,999,203,-.16768E-2,-.805867E-2,.22125E-3
STARLINK-36886,2026-050J,2026-03-19T13:38:26.608992,15.98517353,.0000812,53.1618,232.5329,328.5582,31.5400,0,U,68175,999,203,-.14987E-2,-.726912E-2,.18427E-3
STARLINK-36905,2026-050K,2026-03-19T13:38:05.675136,15.98675796,.0000718,53.1619,232.5315,321.9812,38.1167,0,U,68176,999,203,-.14521E-2,-.710734E-2,.17733E-3
STARLINK-36668,2026-050L,2026-03-19T13:37:43.637088,15.98826248,.0000696,53.1621,232.5297,333.7333,26.3662,0,U,68177,999,203,-.14604E-2,-.720821E-2,.18212E-3
STARLINK-36677,2026-050M,2026-03-19T13:37:24.300768,15.98898420,.0000919,53.1619,232.5274,18.8959,341.2106,0,U,68178,999,203,-.18795E-2,-.929161E-2,.28745E-3
STARLINK-37052,2026-050N,2026-03-19T13:37:01.873056,15.99173693,.0000847,53.1613,232.5262,251.3193,108.7745,0,U,68179,999,203,-.13225E-2,-.666179E-2,.15892E-3
