STARLINK-37073          
1 68151U 26049K   26078.51234559 -.00494902  91744-4 -81365-3 0  9994
2 68151  97.2790  98.0750 0000583 352.5845   7.5426 16.03149567   954
STARLINK-37049          
1 68152U 26049L   26078.01278527 -.00417006  68149-4 -61657-3 0  9998
2 68152  97.2794  97.5302 0000474  89.6838 270.4498 16.04917116   870
STARLINK-37072          
1 68153U 26049M   26078.51169095 -.00162025  12479-4 -25962-3 0  9995
2 68153  97.2788  98.0760 0002614  12.6003 347.5342 16.03506250   951
STARLINK-36241          
1 68154U 26049N   26078.51098387 -.00136495  95698-5 -21485-3 0  9994
2 68154  97.2787  98.0764 0002702  13.1240 347.0110 16.03790974   958
STARLINK-37048          
1 68155U 26049P   26078.32317889  .00101037  66606-5  15061-3 0  9997
2 68155  97.2786  97.8732 0002251 149.8692 210.2719 16.04907380   922
STARLINK-36313          
1 68156U 26049Q   26078.51069617 -.00172305  13864-4 -26937-3 0  9991
2 68156  97.2787  98.0771 0002314   1.4479 358.6808 16.03927223   952
STARLINK-37064          
1 68157U 26049R   26078.51127920 -.00144348  10411-4 -22898-3 0  9997
2 68157  97.2784  98.0764 0002238 357.8304   2.2966 16.03667729   951
STARLINK-37069          
1 68158U 26049S   26078.50941725  .01093981  68408-3  14785-2 0  9992
2 68158  97.2784  98.0788 0001368   7.2640 352.8662 16.06600253   959
STARLINK-37053          
1 68159U 26049T   26078.32241881  .00065181  41103-5  95454-4 0  9998
2 68159  97.2784  97.8738 0002531 141.0873 219.0591 16.05261971   921
STARLINK-36306          
1 68160U 26049U   26078.50927702 -.00201573  18201-4 -30344-3 0  9990
2 68160  97.2782  98.0789 0002364  13.0399 347.0943 16.04569636   959
STARLINK-37057          
1 68161U 26049V   26079.82223327 -.00764003  19799-3 -15396-2 0  9992
2 68161  97.2774  99.5066 0000516  61.6825 298.4505 15.99652779  1166
STARLINK-37013          
1 68162U 26049W   26080.44453746 -.03082394  27952-2 -65160-2 0  9995
2 68162  97.2760 100.1921 0000978 285.2580  74.8590 15.98955538  1264
STARLINK-36958          
1 68163U 26049X   26080.00774681 -.00565483  11312-3 -11262-2 0  9992
2 68163  97.2762  99.7144 0001530 151.8774 208.2587 15.99834123  1193
STARLINK-37002          
1 68164U 26049Y   26079.82054813 -.00481185  84172-4 -92966-3 0  9991
2 68164  97.2773  99.5096 0000568 170.3743 189.7546 16.00359997  1161
STARLINK-36971          
1 68165U 26049Z   26080.38249057 -.01621138  80041-3 -32496-2 0  9997
2 68165  97.2764 100.1226 0008221 134.8506 225.3442 15.99800071  1255
STARLINK-36273          
1 68166U 26049AA  26079.75630469 -.00306844  36957-4 -56287-3 0  9994
2 68166  97.2750  99.4439 0000648 211.7263 148.3977 16.01239572  1159
STARLINK-36969          
1 68167U 26050A   26078.57016830 -.00762286  19812-3 -16788-2 0  9993
2 68167  53.1618 232.5443 0000488 318.1927  41.9065 15.97343210  2033
STARLINK-36984          
1 68168U 26050B   26078.56997631 -.00752821  19400-3 -16463-2 0  9997
2 68168  53.1620 232.5441 0000565 333.0752  27.0248 15.97468217  2036
STARLINK-37077          
1 68169U 26050C   26078.56974941 -.00740191  18853-3 -16046-2 0  9992
2 68169  53.1619 232.5425 0000745 335.0992  25.0002 15.97622802  2033
STARLINK-37003          
1 68170U 26050D   26078.56952426 -.00716345  17815-3 -15382-2 0  9991
2 68170  53.1620 232.5407 0000461 327.9149  32.1853 15.97788708  2037
STARLINK-37034          
1 68171U 26050E   26078.56928901 -.00745719  19165-3 -15903-2 0  9999
2 68171  53.1619 232.5395 0000585 340.0636  20.0371 15.97919140  2033
STARLINK-37031          
1 68172U 26050F   26078.56904187 -.00746879  19250-3 -15788-2 0  9994
2 68172  53.1620 232.5378 0000458 346.3779  13.7239 15.98076782  2032
STARLINK-37076          
1 68173U 26050G   26078.50625542 -.00864982  25162-3 -17873-2 0  9996
2 68173  53.1615 232.8571 0000645 359.7564   0.3466 15.98507778  2020
STARLINK-37078          
1 68174U 26050H   26078.56858123 -.00805867  22125-3 -16768-2 0  9991
2 68174  53.1617 232.5342 0000261  74.2706 285.8353 15.98372202  2035
STARLINK-36886          
1 68175U 26050J   26078.56836353 -.00726912  18427-3 -14987-2 0  9997
2 68175  53.1618 232.5329 0000812 328.5582  31.5400 15.98517353  2038
STARLINK-36905          
1 68176U 26050K   26078.56812124 -.00710734  17733-3 -14521-2 0  9996
2 68176  53.1619 232.5315 0000718 321.9812  38.1167 15.98675796  2032
STARLINK-36668          
1 68177U 26050L   26078.56786617 -.00720821  18212-3 -14604-2 0  9997
2 68177  53.1621 232.5297 0000696 333.7333  26.3662 15.98826248  2038
STARLINK-36677          
1 68178U 26050M   26078.56764237 -.00929161  28745-3 -18795-2 0  9997
2 68178  53.1619 232.5274 0000919  18.8959 341.2106 15.98898420  2037
STARLINK-37052          
1 68179U 26050N   26078.56738279 -.00666179  15892-3 -13225-2 0  9994
2 68179  53.1613 232.5262 0000847 251.3193 108.7745 15.99173693  2037
